<?xml version="1.0" encoding="UTF-8"?>
<kml xmlns="http://www.opengis.net/kml/2.2">
  <Document>
    <name>Mission Overlay</name>
    <description>Overlay exported from Mission Dispatcher</description>
    <Placemark>
      <name>Polygon 1</name>
      <description>Polygon Overlay Element</description>
      <Style>
        <LineStyle>
          <color>ff0000ff</color>
          <width>2</width>
        </LineStyle>
        <PolyStyle>
          <color>4df755a8</color>
        </PolyStyle>
      </Style>
      <Polygon>
        <outerBoundaryIs>
          <LinearRing>
            <coordinates>
              -4.608736,53.807753,0
              -6.858736,51.132458,0
              -1.163425,50.309170,0
              -3.835299,51.767651,0
              -0.179049,53.096150,0
              -4.608736,53.807753,0
            </coordinates>
          </LinearRing>
        </outerBoundaryIs>
      </Polygon>
    </Placemark>
    <Placemark>
      <name>Circle 3</name>
      <description>Circle Overlay Element</description>
      <Style>
        <LineStyle>
          <color>ffffffff</color>
          <width>2</width>
        </LineStyle>
        <PolyStyle>
          <color>4d81b910</color>
        </PolyStyle>
      </Style>
      <Polygon>
        <outerBoundaryIs>
          <LinearRing>
            <coordinates>
              -4.590743,40.926260,0
              -4.601664,41.094008,0
              -4.634322,41.259719,0
              -4.688402,41.421815,0
              -4.763384,41.578766,0
              -4.858545,41.729098,0
              -4.972969,41.871412,0
              -5.105554,42.004394,0
              -5.255023,42.126822,0
              -5.419937,42.237580,0
              -5.598707,42.335665,0
              -5.789612,42.420192,0
              -5.990813,42.490402,0
              -6.200373,42.545669,0
              -6.416273,42.585499,0
              -6.636434,42.609539,0
              -6.858736,42.617576,0
              -7.081039,42.609539,0
              -7.301200,42.585499,0
              -7.517100,42.545669,0
              -7.726660,42.490402,0
              -7.927861,42.420192,0
              -8.118766,42.335665,0
              -8.297536,42.237580,0
              -8.462450,42.126822,0
              -8.611919,42.004394,0
              -8.744504,41.871412,0
              -8.858928,41.729098,0
              -8.954089,41.578766,0
              -9.029071,41.421815,0
              -9.083151,41.259719,0
              -9.115809,41.094008,0
              -9.126730,40.926260,0
              -9.115809,40.758086,0
              -9.083151,40.591110,0
              -9.029071,40.426961,0
              -8.954089,40.267248,0
              -8.858928,40.113549,0
              -8.744504,39.967395,0
              -8.611919,39.830246,0
              -8.462450,39.703485,0
              -8.297536,39.588393,0
              -8.118766,39.486142,0
              -7.927861,39.397776,0
              -7.726660,39.324201,0
              -7.517100,39.266173,0
              -7.301200,39.224291,0
              -7.081039,39.198987,0
              -6.858736,39.190523,0
              -6.636434,39.198987,0
              -6.416273,39.224291,0
              -6.200373,39.266173,0
              -5.990813,39.324201,0
              -5.789612,39.397776,0
              -5.598707,39.486142,0
              -5.419937,39.588393,0
              -5.255023,39.703485,0
              -5.105554,39.830246,0
              -4.972969,39.967395,0
              -4.858545,40.113549,0
              -4.763384,40.267248,0
              -4.688402,40.426961,0
              -4.634322,40.591110,0
              -4.601664,40.758086,0
              -4.590743,40.926260,0
            </coordinates>
          </LinearRing>
        </outerBoundaryIs>
      </Polygon>
    </Placemark>
    <Placemark>
      <name>Circle 2</name>
      <description>Circle Overlay Element</description>
      <Style>
        <LineStyle>
          <color>ff0a0a0b</color>
          <width>2</width>
        </LineStyle>
        <PolyStyle>
          <color>4d000000</color>
        </PolyStyle>
      </Style>
      <Polygon>
        <outerBoundaryIs>
          <LinearRing>
            <coordinates>
              7.868838,55.885673,0
              7.854434,56.049763,0
              7.811362,56.211586,0
              7.740035,56.369618,0
              7.641142,56.522384,0
              7.515634,56.668479,0
              7.364720,56.806577,0
              7.189853,56.935437,0
              6.992718,57.053915,0
              6.775213,57.160973,0
              6.539432,57.255678,0
              6.287647,57.337216,0
              6.022283,57.404889,0
              5.745894,57.458124,0
              5.461143,57.496472,0
              5.170771,57.519609,0
              4.877577,57.527344,0
              4.584382,57.519609,0
              4.294010,57.496472,0
              4.009259,57.458124,0
              3.732870,57.404889,0
              3.467506,57.337216,0
              3.215721,57.255678,0
              2.979940,57.160973,0
              2.762435,57.053915,0
              2.565300,56.935437,0
              2.390433,56.806577,0
              2.239519,56.668479,0
              2.114011,56.522384,0
              2.015118,56.369618,0
              1.943791,56.211586,0
              1.900719,56.049763,0
              1.886315,55.885673,0
              1.900719,55.720888,0
              1.943791,55.557001,0
              2.015118,55.395619,0
              2.114011,55.238344,0
              2.239519,55.086755,0
              2.390433,54.942389,0
              2.565300,54.806729,0
              2.762435,54.681178,0
              2.979940,54.567049,0
              3.215721,54.465544,0
              3.467506,54.377740,0
              3.732870,54.304574,0
              4.009259,54.246832,0
              4.294010,54.205135,0
              4.584382,54.179935,0
              4.877577,54.171504,0
              5.170771,54.179935,0
              5.461143,54.205135,0
              5.745894,54.246832,0
              6.022283,54.304574,0
              6.287647,54.377740,0
              6.539432,54.465544,0
              6.775213,54.567049,0
              6.992718,54.681178,0
              7.189853,54.806729,0
              7.364720,54.942389,0
              7.515634,55.086755,0
              7.641142,55.238344,0
              7.740035,55.395619,0
              7.811362,55.557001,0
              7.854434,55.720888,0
              7.868838,55.885673,0
            </coordinates>
          </LinearRing>
        </outerBoundaryIs>
      </Polygon>
    </Placemark>
    <Placemark>
      <name>TEST</name>
      <description>Marker Overlay Element</description>
      <Style>
        <IconStyle>
          <color>ff050529</color>
          <scale>1.1</scale>
          <Icon>
            <href>https://maps.google.com/mapfiles/kml/shapes/placemark_circle.png</href>
          </Icon>
        </IconStyle>
        <LabelStyle>
          <color>ffffffff</color>
          <scale>0.9</scale>
        </LabelStyle>
      </Style>
      <Point>
        <coordinates>27.846255,53.241525,0</coordinates>
      </Point>
    </Placemark>
    <Placemark>
      <name>Annotation 5</name>
      <description>Annotation Overlay Element</description>
      <Style>
        <LabelStyle>
          <color>ff8a7d75</color>
          <scale>1.86</scale>
        </LabelStyle>
        <IconStyle>
          <scale>0.0</scale> <!-- Hide marker pin, keep only label -->
        </IconStyle>
      </Style>
      <Point>
        <coordinates>7.084831,50.569864,0</coordinates>
      </Point>
    </Placemark>
  </Document>
</kml>